{
    "links": {
        "self": "http://www.neowsapp.com/rest/v1/neo/3447919?api_key=iIulBulltgU6a56xZRHN4H3l9WmuAYTsLGpBGhQ2"
    },
    "id": "3447919",
    "neo_reference_id": "3447919",
    "name": "(2009 DE1)",
    "designation": "2009 DE1",
    "nasa_jpl_url": "http://ssd.jpl.nasa.gov/sbdb.cgi?sstr=3447919",
    "absolute_magnitude_h": 24.3,
    "estimated_diameter": {
        "kilometers": {
            "estimated_diameter_min": 0.0366906138,
            "estimated_diameter_max": 0.0820427065
        },
        "meters": {
            "estimated_diameter_min": 36.6906137531,
            "estimated_diameter_max": 82.0427064882
        },
        "miles": {
            "estimated_diameter_min": 0.0227984834,
            "estimated_diameter_max": 0.0509789586
        },
        "feet": {
            "estimated_diameter_min": 120.3760332259,
            "estimated_diameter_max": 269.1689931548
        }
    },
    "is_potentially_hazardous_asteroid": false,
    "close_approach_data": [
        {
            "close_approach_date": "2009-02-25",
            "close_approach_date_full": "2009-Feb-25 16:46",
            "epoch_date_close_approach": 1235580360000,
            "relative_velocity": {
                "kilometers_per_second": "18.5579381965",
                "kilometers_per_hour": "66808.5775072769",
                "miles_per_hour": "41512.2519516743"
            },
            "miss_distance": {
                "astronomical": "0.0276190498",
                "lunar": "10.7438103722",
                "kilometers": "4131751.021503926",
                "miles": "2567351.0351131388"
            },
            "orbiting_body": "Earth"
        }
    ],
    "orbital_data": {
        "orbit_id": "9",
        "orbit_determination_date": "2017-04-06 09:01:18",
        "first_observation_date": "2009-02-19",
        "last_observation_date": "2009-02-25",
        "data_arc_in_days": 6,
        "observations_used": 29,
        "orbit_uncertainty": "9",
        "minimum_orbit_intersection": ".000419978",
        "jupiter_tisserand_invariant": "3.916",
        "epoch_osculation": "2454883.5",
        "eccentricity": ".6113479818126761",
        "semi_major_axis": "1.733010564991193",
        "inclination": ".945504674275043",
        "ascending_node_longitude": "157.3459915111603",
        "orbital_period": "833.2978136438263",
        "perihelion_distance": ".6735380536237814",
        "perihelion_argument": "82.43908018962595",
        "aphelion_distance": "2.792483076358604",
        "perihelion_time": "2454935.796615813171",
        "mean_anomaly": "337.4068989687898",
        "mean_motion": ".4320184141919201",
        "equinox": "J2000",
        "orbit_class": {
            "orbit_class_type": "APO",
            "orbit_class_description": "Near-Earth asteroid orbits which cross the Earth’s orbit similar to that of 1862 Apollo",
            "orbit_class_range": "a (semi-major axis) > 1.0 AU; q (perihelion) < 1.017 AU"
        }
    },
    "is_sentry_object": false
}